CELESTIS-02 & TAURUS R/B
1 25160U 98007D   22117.37436582  .00000005  00000+0  60105-4 0  9999
2 25160 107.9820 163.9198 0063385 199.0405 172.5703 14.21613430255825
UFO 8 (USA 138)
1 25258U 98016A   22116.61040477 -.00000037  00000+0  00000+0 0  9996
2 25258   9.3727  30.1126 0003537  28.5148 187.3412  1.00274946 88680
NOAA 15
1 25338U 98030A   22117.48389900  .00000200  00000+0  10172-3 0  9990
2 25338  98.6491 147.6741 0011581  87.5349 272.7156 14.26114197246000
TECHSAT 1B (GO-32)
1 25397U 98043D   22116.84575147  .00000085  00000+0  56946-4 0  9999
2 25397  98.8134  67.1902 0000271 208.8112 151.3051 14.23746356236084
ORBCOMM FM18
1 25414U 98046B   22117.51916014  .00000775  00000+0  32871-3 0  9995
2 25414  44.9941 189.7304 0005079 273.8756  86.1509 14.33443384239662
ORBCOMM FM19
1 25415U 98046C   22117.09656740  .00000744  00000+0  31802-3 0  9995
2 25415  44.9949 192.4831 0004258 259.7532 173.9916 14.33381105239603
ORBCOMM FM20
1 25416U 98046D   22117.31334019  .00000655  00000+0  28633-3 0  9992
2 25416  44.9945 191.8260 0002286 224.5444 135.5218 14.33332145239586
ORBCOMM FM15
1 25418U 98046F   22117.20907862  .00000707  00000+0  30416-3 0  9994
2 25418  44.9978 193.9827 0003654 283.4038 104.0346 14.33461598239622
ORBCOMM FM14
1 25419U 98046G   22117.57740479  .00000835  00000+0  34987-3 0  9993
2 25419  44.9971 191.8898 0003231 261.9658 235.0381 14.33495744239670
ORBCOMM FM13
1 25420U 98046H   22116.66998788  .00000568  00000+0  25540-3 0  9990
2 25420  44.9981 198.4494 0005189 275.4990  84.5265 14.33254365238412
ASTRA 2A
1 25462U 98050A   22116.84690524  .00000137  00000+0  00000+0 0  9990
2 25462   3.2778  86.0821 0002483 322.8392 138.8284  1.00276983 31171
ORBCOMM FM21
1 25475U 98053A   22117.46732348  .00000693  00000+0  29997-3 0  9994
2 25475  45.0097 278.4693 0000496 179.4538 180.6309 14.33313642232874
ORBCOMM FM23
1 25477U 98053C   22117.47385390  .00000822  00000+0  34724-3 0  9996
2 25477  45.0098 280.6221 0001260 226.0556 134.0186 14.33206238233002
ORBCOMM FM27
1 25481U 98053G   22116.81700865  .00000841  00000+0  35306-3 0  9994
2 25481  45.0068 282.2620 0001027  91.2346 268.8618 14.33327896232846
SCD 2
1 25504U 98060A   22117.18783722  .00000432  00000+0  71790-4 0  9996
2 25504  24.9970  26.0436 0017156   3.9035 152.7347 14.44186991241788
ISS (ZARYA)
1 25544U 98067A   22117.72177117  .00014777  00000+0  26864-3 0  9990
2 25544  51.6433 226.5207 0006291  43.3456 107.7950 15.49748523337359
SWAS
1 25560U 98071A   22116.71266867  .00001490  00000+0  14579-3 0  9990
2 25560  69.8967 116.5299 0006229  15.6528 344.4819 14.94582755270556
GLOBALSTAR M023
1 25621U 99004A   22117.53480563 -.00000113  00000+0 -48946-4 0  9996
2 25621  52.0111 304.6766 0010908 111.7646 283.5438 12.62406868 70995
SKYNET 4E
1 25639U 99009B   22117.11680571 -.00000046  00000+0  00000+0 0  9993
2 25639  11.2237  17.1992 0002860  29.9490 208.7505  1.00271469 84853
GLOBALSTAR M037
1 25652U 99012D   22116.62181546 -.00000081  00000+0  12730-3 0  9991
2 25652  52.0004  78.5047 0001679 151.7539  19.3730 12.62348177 66330
LANDSAT 7
1 25682U 99020A   22117.30799949 -.00030624  00000+0 -64460-2 0  9994
2 25682  97.9799 167.2948 0001267 117.7834 309.8916 14.59707290225109
DLR-TUBSAT
1 25757U 99029B   22117.39674360  .00000110  00000+0  39178-4 0  9999
2 25757  98.4846  59.4707 0013192 274.9613  85.0076 14.51487452213976
CXO
1 25867U 99040B   22120.44526699  .00000624  00000+0  00000+0 0  9992
2 25867  46.7187 238.5837 8768011 232.2111 359.8459  0.37806947 22777
ABS-7
1 25894U 99046A   22116.84702178 -.00000292  00000+0  00000+0 0  9997
2 25894   2.6346  88.1639 0005849 338.8759  46.9725  0.99969887 81967
ABS-6
1 25924U 99053A   22117.49523324 -.00000130  00000+0  00000+0 0  9996
2 25924   0.0323  49.9694 0003333  23.6478 119.1699  1.00281755 82684
NAVSTAR 46 (USA 145)
1 25933U 99055A   22115.61323333 -.00000106  00000+0  00000+0 0  9991
2 25933  52.4043   0.9144 0143864 129.6285 231.8783  2.00560260165228
AMC-4 (GE-4)
1 25954U 99060A   22117.20916792  .00000075  00000+0  00000+0 0  9998
2 25954   1.3920  92.3565 0003146 312.3586 110.8578  1.00273106 82329
UFO 10 (USA 146)
1 25967U 99063A   22116.83451998 -.00000198  00000+0  00000+0 0  9992
2 25967   8.6496  33.6067 0003855  35.8373  62.9507  1.00272302 82184
ORBCOMM FM30
1 25980U 99065A   22116.62410699  .00000634  00000+0  27924-3 0  9991
2 25980  45.0322  99.8392 0005242  19.1390 340.9653 14.33246556169632
ORBCOMM FM31
1 25981U 99065B   22116.67279534  .00000602  00000+0  26738-3 0  9995
2 25981  45.0237  93.9810 0001973  18.8098 341.2821 14.33280652169193
ORBCOMM FM32
1 25982U 99065C   22116.67866434  .00000507  00000+0  23768-3 0  9991
2 25982  45.0169 102.3410 0003811  54.3226 305.7975 14.32315210169902
ORBCOMM FM33
1 25983U 99065D   22117.15797491  .00000877  00000+0  35070-3 0  9991
2 25983  45.0318  28.2153 0008479  61.7749  92.3124 14.35523281171120
ORBCOMM FM36
1 25984U 99065E   22117.22808983  .00000914  00000+0  37951-3 0  9991
2 25984  45.0376 100.4467 0005391 307.2949  52.7406 14.33318579170241
ORBCOMM FM35
1 25985U 99065F   22117.09665941  .00000684  00000+0  29711-3 0  9991
2 25985  45.0401 102.5088 0001260  30.6344 329.4576 14.33282256170244
XMM-NEWTON
1 25989U 99066A   22106.66494330  .00000009  00000+0  00000+0 0  9996
2 25989  70.2412 305.8618 6129891  87.4900 359.8179  0.50134260 15375
DMSP 5D-3 F15 (USA 147)
1 25991U 99067A   22116.91128248  .00000184  00000+0  11551-3 0  9992
2 25991  99.0512 107.6118 0009817 341.3891  74.9042 14.16525256156478
TERRA
1 25994U 99068A   22117.52229553  .00000385  00000+0  95306-4 0  9999
2 25994  98.1390 190.6038 0001365  98.5417 317.9050 14.57139916189208
CELESTIS-03 & TAURUS R/B
1 26034U 99070C   22116.89379341  .00023798  00000+0  12061-2 0  9996
2 26034  98.3134 117.8050 0008374 310.6504  49.3998 15.16944939213254
GALAXY 11 (G-11)
1 26038U 99071A   22117.11110604 -.00000174  00000+0  00000+0 0  9993
2 26038   2.8699  88.4414 0000302  26.7622  46.7794  1.00271808 81917
USA 148
1 26052U 00001A   22116.64650057  .00000029  00000+0  00000+0 0  9990
2 26052   9.4600  42.7182 0001332 346.3859 238.6453  1.00272124 17791
GLOBALSTAR M063
1 26081U 00008A   22116.85851031 -.00000086  00000+0 -49018-4 0  9999
2 26081  51.9948 253.1024 0004109 272.5748 223.9591 11.86131661 21425
MTI
1 26102U 00014A   22117.40858428  .00447111  84462-4  10412-2 0  9994
2 26102  97.4548  49.3061 0008691 155.3039 344.6869 15.96990866230579
ASIASTAR
1 26107U 00016A   22116.86216841 -.00000344  00000+0  00000+0 0  9991
2 26107   5.5620  72.3849 0004694 332.9111 224.8804  1.00268218 80758
IMAGE
1 26113U 00017A   22114.92012904  .00000183  00000+0  19833-1 0  9994
2 26113  94.9281 290.5502 7420759 101.1403 342.5044  1.68652164135960
USA 149 (DSP 20)
1 26356U 00024A   22116.64636353  .00000084  00000+0  00000+0 0  9996
2 26356  12.0465  21.8512 0000841 227.4325  32.1847  1.00269509 17745
NAVSTAR 47 (USA 150)
1 26360U 00025A   22116.63048455 -.00000016  00000+0  00000+0 0  9997
2 26360  54.0188  81.0059 0048503 183.8656 349.9666  2.00576643160930
TDRS 8
1 26388U 00034A   22116.98220303 -.00000240  00000+0  00000+0 0  9998
2 26388  10.2886  42.9040 0023790 339.9908 274.4524  1.00271513 80001
CLUSTER II-FM7 (SAMBA)
1 26410U 00041A   22119.13411930  .00000352  00000+0  00000+0 0  9993
2 26410 133.9406 347.2889 5539511 198.4321   0.6549  0.44212987 13598
CLUSTER II-FM6 (SALSA)
1 26411U 00041B   22119.10358239  .00000285  00000+0  00000+0 0  9998
2 26411 135.9069 350.4870 7174411 203.0699   0.5583  0.44218734 13637
INTELSAT 9 (IS-9)
1 26451U 00043A   22117.13505065 -.00000297  00000+0  00000+0 0  9990
2 26451   7.1078  61.5840 0002782 339.4304 172.7077  1.00272269 79682
CLUSTER II-FM5 (RUMBA)
1 26463U 00045A   22119.10751451  .00000384  00000+0  00000+0 0  9992
2 26463 139.4785 350.7550 6692780 203.8224   0.5309  0.44218443 13522
CLUSTER II-FM8 (TANGO)
1 26464U 00045B   22119.11204692  .00000351  00000+0  00000+0 0  9998
2 26464 133.9347 347.2815 5536134 198.4156   0.5434  0.44219357 13606
NSS-11 (AAP-1)
1 26554U 00059A   22117.51704167  .00000012  00000+0  00000+0 0  9991
2 26554   0.0196  88.0116 0002995 289.7980 199.7996  1.00270719 79016
USA 153
1 26575U 00065A   22116.67688236 -.00000336  00000+0  00000+0 0  9995
2 26575   9.0156  46.0458 0001848   5.7987 180.8645  1.00269140 17768
AMC-6 (GE-6)
1 26580U 00067A   22117.51651828  .00000092  00000+0  00000+0 0  9992
2 26580   0.0043 299.0877 0002699  96.5568 226.7641  1.00273037 78823
NAVSTAR 49 (USA 154)
1 26605U 00071A   22116.86007321  .00000064  00000+0  00000+0 0  9994
2 26605  55.0846 154.7007 0134983 253.8869 217.7534  2.00562341157186
INTELSAT 1R (IS-1R)
1 26608U 00072A   22116.80085407 -.00000149  00000+0  00000+0 0  9998
2 26608   4.3424  80.5735 0000604 340.0233 239.6160  1.00272517 26150
ANIK F1
1 26624U 00076A   22116.67595769 -.00000075  00000+0  00000+0 0  9990
2 26624   1.3064  93.1493 0009322 332.6513 283.0271  1.00272393 27979
ASTRA 2D
1 26638U 00081A   22116.55893189  .00000118  00000+0  00000+0 0  9992
2 26638   7.1855  60.6488 0001997 324.7362  54.0060  1.00271249 37740
AMC-8 (GE-8)
1 26639U 00081B   22117.52156337  .00000077  00000+0  00000+0 0  9992
2 26639   2.3195  89.0888 0002897 314.6433 224.5168  1.00273157 78110
NAVSTAR 50 (USA 156)
1 26690U 01004A   22116.32702472  .00000006  00000+0  00000+0 0  9991
2 26690  53.9209  88.5855 0003949 301.5959 236.6963  1.91595072154553
ODIN
1 26702U 01007A   22117.48838583  .00003544  00000+0  22429-3 0  9992
2 26702  97.5238 133.1672 0012441 103.7419 256.5196 15.09564904159195
USA 157 (MILSTAR-2 2)
1 26715U 01009A   22117.40131685  .00000003  00000+0  00000+0 0  9993
2 26715   9.9680  27.4071 0001827  16.9502 191.1238  1.00272241 16480
EUTELSAT 133 WEST A
1 26719U 01011A   22117.52482310  .00000067  00000+0  00000+0 0  9997
2 26719   3.5908  83.2262 0002175 317.8151 230.5194  1.00271457 77416
BSAT-2A
1 26720U 01011B   22116.79169616 -.00000197  00000+0  00000+0 0  9993
2 26720   7.5041  59.3347 0002331   9.1306 182.9818  0.99177276 76979
